<?xml version="1.0" encoding="UTF-8"?>
<kml xmlns="http://www.opengis.net/kml/2.2">
    <Document>
        <name>track 13_08_2026 06_29_23.kml</name>
        <description>Track created by Ultramagic FlightPack - Starting at time 13_08_2026 06_29_23 -
            Sampling period is 3 seconds - Flight duration is 58 min</description>
        <Style id="path0Style">
            <LineStyle>
                <color>7f00ffff</color>
                <width>20</width>
            </LineStyle>
        </Style>
        <Placemark>
            <name>track 13_08_2026 06_29_23.kml</name>
            <styleUrl>#path0Style</styleUrl>
            <LineString>
                <altitudeMode>absolute</altitudeMode>
                <coordinates>
                    15.63343076844114,48.44636574527912,319.1154441833496
                    15.633422702814267,48.446377866741784,319.887323313545
                    15.633416058243208,48.44638034232706,319.758693754673
                    15.633411792149884,48.44637938009111,319.64779287576675
                    15.633408887501899,48.44638247207653,319.69210439827293
                    15.633411689750202,48.44638344862453,319.96236807014793
                    15.633411689731583,48.44638344862498,319.96236807014793
                    15.633411682406622,48.44638344668806,319.96236807014793
                    15.633408291663143,48.4463862199647,319.8924217801541
                    15.633407964062,48.44638635681617,319.8924217801541
                    15.63340784624086,48.44638640603455,319.8924217801541
                    15.633407089722589,48.446386500321616,318.980296718888
                    15.63340454575698,48.44638626473692,318.955515448004
                    15.63340377482429,48.44638616558498,318.84601764846593
                    15.633403037410224,48.44638602553692,318.78905909042805
                    15.633402068497814,48.446385841524005,318.78905909042805
                    15.633401637335298,48.44638540201449,318.9647401254624
                    15.633401010072884,48.44638511862139,318.7828661976382
                    15.633401213363959,48.446385066222575,318.8791448706761
                    15.63340090725361,48.446384703107476,318.8791448706761
                    15.633401119138414,48.44638477437852,319.0549271060154
                    15.633401130117454,48.44638477611935,319.0542568396777
                    15.63340119240882,48.44638494034069,318.8055074252188
                    15.6334011922452,48.44638493907704,318.8055074252188
                    15.633401191817613,48.446384935774724,318.8055074252188
                    15.63340066795827,48.44638476248075,318.66500100586563
                    15.633400267986397,48.446384542059384,318.66500100586563
                    15.63340035255058,48.44638452317027,318.78022844158113
                    15.633399346056311,48.44638425249123,318.86651029251516
                    15.633399642378127,48.44638394758729,318.953445260413
                    15.633399769566623,48.44638386335929,319.1022716257721
                    15.6334000304804,48.44638354287651,319.1898053633049
                    15.633399700520231,48.446383584224655,319.21382662281394
                    15.633400270199072,48.446383473904845,319.2168644685298
                    15.633400113748518,48.44638330693915,319.12300964444876
                    15.633400424371418,48.446383186103745,319.1087696598843
                    15.633400780090348,48.44638215854804,319.0505407964811
                    15.633402835784672,48.44638107959853,319.1867849621922
                    15.633412315756456,48.44636921280013,319.5477370172739
                    15.633454033670091,48.446337061188814,320.73323074914515
                    15.633474802248502,48.446325358827536,321.8533027553931
                    15.633487587965933,48.44631784405625,322.84768829494715
                    15.633501611053793,48.446284469225255,324.66897267568856
                    15.633524124044241,48.44626102692271,327.1234838962555
                    15.633533071616004,48.44622691764211,329.44757433142513
                    15.633548435808416,48.44618899293175,331.3927334556356
                    15.633561277583082,48.446154935315484,333.3316783551127
                    15.633578814565556,48.44610688719674,335.0346038490534
                    15.633595770487643,48.44607993329399,330.9753567967564
                    15.633617506777783,48.44603070511541,333.584204104729
                    15.63363030615166,48.44597872549772,336.3272270821035
                    15.63364986962192,48.44593963916352,338.5019598370418
                    15.633665836585699,48.445876724542416,340.7776086786762
                    15.633684489386308,48.445832554387174,342.68850825726986
                    15.633703574895048,48.44578414310536,344.2114224797115
                    15.633717539112139,48.44573128690716,345.57552174292505
                    15.633733898086982,48.44569284948933,347.0978158051148
                    15.633745268118673,48.445634726311226,349.1582676200196
                    15.63375695652247,48.44558409125491,351.1032383758575
                    15.633773263271044,48.44553315467981,353.31836641579866
                    15.633784476446857,48.44547156791978,355.50342899095267
                    15.633801837137474,48.4454235776875,357.30742705985904
                    15.633816972198197,48.445363668841,359.7240707008168
                    15.633829889928766,48.44530552077395,361.59919149056077
                    15.633850103865955,48.4452515212527,363.8326850635931
                    15.633856277511205,48.445226902557756,364.45356743223965
                    15.6338820524618,48.44512777785638,367.75789106450975
                    15.63390600983197,48.44506789022056,369.4965252317488
                    15.633923148803555,48.44500078085018,371.34336756914854
                    15.633949664087746,48.444941474935945,374.13223326951265
                    15.633978738661398,48.44487321008827,375.7328567886725
                    15.634004335875566,48.44480805150609,377.72155861742795
                    15.63403595747767,48.4447473901287,379.6673956885934
                    15.634063437613378,48.444676959692174,381.4783836985007
                    15.63409274321201,48.444612169339564,383.8767853397876
                    15.63412787075111,48.44454403519975,386.12903079856187
                    15.63416729967359,48.444473354435885,388.0771976932883
                    15.63420669020084,48.44441071261815,389.0890188384801
                    15.634242535575513,48.44433899333005,390.27640816010535
                    15.634280127814446,48.44427174320635,390.8288873312995
                    15.634320573097023,48.44420320619828,391.2201821980998
                    15.634357738461105,48.44412623632134,391.4036845099181
                    15.634400468558963,48.44405967616172,391.73951456230134
                    15.634438205256684,48.4439836308817,391.87647142075
                    15.634474098703041,48.443913689682596,392.2753399256617
                    15.63451731520911,48.44384260066498,392.3863030169159
                    15.634553606079145,48.443762716536504,392.7916920185089
                    15.634594369430873,48.443695420660454,392.8819702388719
                    15.634633590259288,48.44361705035499,393.1944086737931
                    15.634672150027985,48.44354706705822,393.37940259464085
                    15.63471071156643,48.4434781566472,393.1313944477588
                    15.634746847351293,48.44339905565565,392.5623389687389
                    15.634785297715732,48.44332797589575,391.45792510267347
                    15.634823095968775,48.44325600913975,390.427839031443
                    15.634858821368873,48.44317886010491,389.0707177789882
                    15.634895893695129,48.44310886242632,387.3847836339846
                    15.634930726008516,48.44303262773138,385.3508568489924
                    15.634962883998512,48.44295511682205,382.80836104787886
                    15.63499702512672,48.442883192666,379.605066367425
                    15.635026064666365,48.442804705368786,376.55160152725875
                    15.635060153059632,48.44272944763036,374.01861826051027
                    15.63509293772348,48.44265229537671,371.99811469670385
                    15.635122657240782,48.4425755989011,370.68438338767737
                    15.63516179231907,48.44249691761,370.1411398425698
                    15.635193258751851,48.442418584309415,369.8812452368438
                    15.635229240901216,48.442340690779716,369.72188932448626
                    15.635263474006646,48.442260386783666,370.291684852913
                    15.635295337866243,48.44218026094611,371.1076653525233
                    15.635332339972356,48.44210340405942,372.18843719828874
                    15.635366470044804,48.44202486502339,373.3388385139406
                    15.635400797509053,48.4419481839735,374.85691904928535
                    15.635436306791318,48.44187127751018,376.2998018087819
                    15.63547041712262,48.44179431699163,377.49029771238565
                    15.635509573824866,48.44171959598173,378.697112634778
                    15.635545674070785,48.441642224495425,380.0989375784993
                    15.635579102110993,48.441567007652154,381.70160665921867
                    15.635616777667838,48.44149046158046,382.87680023442954
                    15.635649082654133,48.4414133553572,384.18749819975346
                    15.63568619463886,48.44133562858767,385.7323407288641
                    15.635723451906061,48.44125760028979,387.32102353218943
                    15.63575653510019,48.44117925813907,389.5539955608547
                    15.63579532955875,48.44110361629676,392.073469651863
                    15.635831200724251,48.44102351044136,394.3906341055408
                    15.635865563971807,48.4409446054128,396.27388534974307
                    15.63590462991937,48.440865510385834,398.3605409068987
                    15.635937336486723,48.440787738808844,400.0405409671366
                    15.63597616973633,48.440708768997304,401.80568373855203
                    15.636011949015169,48.44062700955845,403.38261311315
                    15.636046473700523,48.44054650074296,404.9456476550549
                    15.636086706683892,48.44046453254894,406.4134428203106
                    15.636119562768409,48.44038511511087,407.5130927078426
                    15.636156621445867,48.440303775210005,408.3471562145278
                    15.636192399392993,48.4402227852776,408.78349587880075
                    15.636221177119667,48.44013690415019,409.29495116882026
                    15.636258402271627,48.4400545617827,408.8873175624758
                    15.636298392938007,48.43997378891532,408.2991854082793
                    15.636320231903785,48.439890299223876,407.4783682161942
                    15.636340462195914,48.43981130806969,406.15718948002905
                    15.636369527954365,48.43972908612711,403.9393515055999
                    15.636397984201919,48.43964697343129,401.623369993642
                    15.636425970693386,48.43956515115344,399.2668099133298
                    15.636462999828794,48.439476975666814,396.8290467085317
                    15.636496419921551,48.43939240297709,395.09804206341505
                    15.636511485310454,48.439311442455526,393.0402343571186
                    15.6365340004885,48.439228640561815,391.25147897563875
                    15.636565238613548,48.43914730310216,389.67504256311804
                    15.636588841868955,48.4390751073026,389.34019912499934
                    15.636589688262077,48.43898902964221,390.27004054095596
                    15.636622800125496,48.4388984082455,391.1082547977567
                    15.636647187003618,48.43882007078619,393.2614131551236
                    15.63667922299066,48.43874412555123,395.7859255252406
                    15.636713990369154,48.43866077481341,398.2919727489352
                    15.636740589244717,48.438580661576175,401.3959301961586
                    15.63676863193157,48.43849617686405,404.68645023275167
                    15.636797006118723,48.43841388115936,408.18342878948897
                    15.636822406767504,48.438330388508184,411.88704464398324
                    15.63685269479642,48.43824289529831,415.9217701945454
                    15.636882622793985,48.43815304925509,419.55710075236857
                    15.636916847820997,48.43806081322555,422.9083360536024
                    15.636943923227793,48.437976656069154,425.88946924638003
                    15.636968481269962,48.43787335530046,428.5169517081231
                    15.636988200300344,48.43778565469483,431.2527150157839
                    15.637008803865552,48.437684565715244,433.26696665398777
                    15.637024864210186,48.437587589164856,435.28994420170784
                    15.637045467716675,48.43748584178618,436.9464188599959
                    15.63705067775925,48.43738569737792,438.2932624090463
                    15.637052379088527,48.43727374438147,439.43007298000157
                    15.63705101725201,48.43716702415636,439.6497711529955
                    15.63704394544885,48.43705464457336,439.86983047425747
                    15.637035005338058,48.43694344108208,440.4069071877748
                    15.63702433064393,48.436838479608745,440.52616048417985
                    15.637021382474034,48.43674293103602,440.25087755545974
                    15.637004821466515,48.43663988925282,440.15868186205626
                    15.636997632578312,48.43653867175879,440.06142578832805
                    15.63698596731324,48.43644284308684,438.79686380364
                    15.636978223047956,48.43634920452485,437.6974786873907
                    15.636971649755692,48.43624640673643,436.14729252643883
                    15.636964026347616,48.436145407513685,434.15404358599335
                    15.636958972633053,48.43605009589926,431.93651054333895
                    15.636955082326242,48.43594565015832,429.3168598981574
                    15.63695235641318,48.43584123176767,426.6675290539861
                    15.636946232224311,48.43574409864571,423.29837744124234
                    15.636956978823205,48.435649370903775,419.99347640853375
                    15.636945600968547,48.43555117552449,417.2738210633397
                    15.63694193637858,48.435453621995656,414.45624513179064
                    15.636940130173405,48.435362700345564,411.5045899087563
                    15.636941522022692,48.43527849443123,408.4374619210139
                    15.636943506650697,48.43518488049843,405.3921863557771
                    15.636941504538248,48.435096570632034,402.7357089826837
                    15.63694110101858,48.43500447011184,399.6542789051309
                    15.636936472977489,48.43490428576357,396.6283398652449
                    15.636925558311274,48.43480951592014,393.5972552523017
                    15.636921714212495,48.434711690003255,390.4842356694862
                    15.636917049344246,48.43461578140407,387.2117926562205
                    15.636913410119888,48.43451692142997,384.100807659328
                    15.636913420381706,48.43441479132213,381.1311418041587
                    15.63691266758487,48.43431719259868,378.3227244922891
                    15.636916975763286,48.43421662601927,375.68475257698447
                    15.636917183826332,48.43410824545432,373.37825540453196
                    15.636924945883228,48.43400567388861,370.8596190465614
                    15.636928590891435,48.43390108451504,368.5497230682522
                    15.636922693794878,48.43379957034722,365.9546498209238
                    15.636918051694565,48.43369400255452,363.28247999213636
                    15.636921325117427,48.43359387781528,360.6741843614727
                    15.63694072717516,48.43348348542419,358.3228266146034
                    15.636954490805923,48.43338163624893,356.77234588656574
                    15.636948706456845,48.433275350749774,356.2598056877032
                    15.636963869355593,48.43318833900391,356.33382948394865
                    15.636960791386013,48.43309288978935,356.3779953280464
                    15.636953726344386,48.43298819297363,356.76183899957687
                    15.636955612074905,48.43289649726193,357.5969662396237
                    15.63694902613652,48.43279396465665,358.59202715568244
                    15.636936035056618,48.432697764074625,359.9009472327307
                    15.636948041147608,48.43260646110671,361.0016087787226
                    15.636944234245403,48.43250517539224,362.34103562962264
                    15.636952882709855,48.4324065868544,363.6098417406902
                    15.636951583058313,48.432304688866964,364.48780041001737
                    15.636941870888858,48.432205779856965,365.30755407735705
                    15.636951515148391,48.432102973772075,366.3909734580666
                    15.636947426013185,48.432004073870615,367.2510271416977
                    15.636954065948112,48.43190724546107,368.1144546158612
                    15.63696140609667,48.4318034295917,368.499876328744
                    15.636949180888218,48.43169409257599,368.78041696269065
                    15.636947727704044,48.43158461698804,368.8975960863754
                    15.636946460055281,48.431493288572455,369.054270779714
                    15.636945362906182,48.43140092281568,369.4967961758375
                    15.636937086336623,48.43129571256665,368.4305007494986
                    15.636926878787108,48.4311868741402,367.89318481460214
                    15.636924799677484,48.43108019294952,366.84386675059795
                    15.63692304279524,48.43098133265369,364.98847193736583
                    15.636916510976564,48.43088790579462,363.0728011019528
                    15.636933636430838,48.43079659476718,361.68744909670204
                    15.636926867339252,48.430694189332314,359.95304004475474
                    15.636920212850528,48.43061132248131,358.61461116280407
                    15.636919493285298,48.43052029460142,357.81327831652015
                    15.636914322675725,48.430431675535615,356.59477349743247
                    15.636919055155525,48.43033194155595,355.03824634104967
                    15.636914269730045,48.430234559368216,353.7841233275831
                    15.636909669348075,48.43013371069075,351.7665844736621
                    15.636909877265861,48.43003518053903,349.9174349810928
                    15.636906154496323,48.42993650562042,348.29679809883237
                    15.636902835656388,48.429840009568366,346.26988566387445
                    15.636898654518637,48.429746126030196,344.6603700192645
                    15.636893227331083,48.4296519103677,343.06828360725194
                    15.63689176359525,48.4295546404206,341.5183221921325
                    15.636887368302622,48.429457498378774,339.74938665144145
                    15.636884164201744,48.429358612079504,338.2301248665899
                    15.636881178927181,48.42926191148392,336.3184889452532
                    15.636876379819672,48.429165943533704,334.60993844550103
                    15.636874824022463,48.429070996742304,332.51161712035537
                    15.636872515405331,48.428976388766095,330.4670344851911
                    15.636870062562156,48.428883164048806,328.0431272732094
                    15.636866364171883,48.42879267024936,325.6524327592924
                    15.636863695103123,48.42870040637112,323.3550989786163
                    15.636862484897536,48.42860943850319,321.3079697340727
                    15.636858190732905,48.42851923478769,319.11624648887664
                    15.636855360889186,48.42842916805902,317.1344145555049
                    15.63685185453463,48.42833903271306,315.0000698901713
                    15.636851913248611,48.42824986448071,313.00034906342626
                    15.636851016934152,48.42816251942432,310.7721546376124
                    15.636852944275539,48.428074401605905,308.5456662354991
                    15.636854615726813,48.42798785253618,306.3939904673025
                    15.636869163495316,48.42791387654632,303.98315245006233
                    15.636877229265334,48.42784173843185,301.7567963581532
                    15.636886511292955,48.42775971601076,299.47239775862545
                    15.636895105864692,48.42767645021996,297.80615101661533
                    15.636900874871866,48.427596968855006,296.3351253364235
                    15.636914573947935,48.427518895309674,295.248251398094
                    15.636930018945247,48.427450508128544,294.6244394015521
                    15.636938965742292,48.42736541083975,294.11932932399213
                    15.63695659326817,48.42728655810219,293.55460167396814
                    15.63696181348353,48.427202343767355,292.41496226005256
                    15.63696874825803,48.42711127912579,291.20734200347215
                    15.636971931387597,48.42703306497453,289.71652460936457
                    15.636985760988205,48.42695865244575,288.71898804046214
                    15.636998965334815,48.4268798936766,287.080438808538
                    15.637009625032125,48.42680804288532,285.29633031692356
                    15.637020262698654,48.42672806892553,283.39945889730006
                    15.637031331488217,48.42665890933335,281.1485289502889
                    15.637047450221312,48.426583796859916,279.0559392934665
                    15.637059313456726,48.4265107557061,276.5904031759128
                    15.637074437533736,48.426438286351065,273.81043103989214
                    15.637086732015074,48.426368382730594,270.7969293175265
                    15.637096183752492,48.42630236504382,268.2188677722588
                    15.637110192406118,48.426233416901916,264.5165130579844
                    15.637122251435668,48.426170399209646,261.3036651266739
                    15.637134438610905,48.426107304798556,258.009943023324
                    15.637154242543852,48.426037732041685,254.98853846173733
                    15.637160480358851,48.42597490666511,251.88208482321352
                    15.637173249492966,48.42591114155398,249.07810387387872
                    15.637194010264743,48.42584383155608,246.10092816781253
                    15.637208997326447,48.42577519008832,243.23467144649476
                    15.637219489378287,48.425705539680855,240.51223654672503
                    15.637236394787015,48.4256467288488,238.42848416697234
                    15.637262350979885,48.42558064110531,236.32072785776109
                    15.637285240778908,48.425508718366345,234.76980422530323
                    15.637308356403045,48.42545041173612,233.49990357458591
                    15.637332543493612,48.42538169837191,232.6156661566347
                    15.637357620448446,48.425322570227436,232.16149094328284
                    15.637385677728469,48.425264223994915,232.44499549083412
                    15.63741245489411,48.425204853240814,232.61213362775743
                    15.637439472987253,48.42515107871102,232.7144114030525
                    15.63747442345126,48.42509091333042,232.8837085161358
                    15.637504972470236,48.425036079726176,233.24239439610392
                    15.637534570721643,48.42498201634046,233.6088291639462
                    15.637567199983723,48.42492551759877,234.1274955458939
                    15.637597227862672,48.42487371042666,235.2573316823691
                    15.637630980954228,48.42482246859994,236.36529779154807
                    15.637661783958828,48.42476868590289,236.93314581923187
                    15.637702494920473,48.424717207132325,237.0453901933506
                    15.637737098181042,48.42466814774414,236.86861788015813
                    15.637782302326887,48.42461786303887,235.96351068466902
                    15.637816008827926,48.42457473106358,235.48872533161193
                    15.63786044938419,48.42453023853392,235.0140321617946
                    15.637893038893543,48.42448971907689,234.97491185739636
                    15.637928944923173,48.42444928929519,234.77618152834475
                    15.637966422978508,48.42439906629028,234.92996760457754
                    15.63800174197513,48.42435618728389,234.68696002755314
                    15.638047762442083,48.42431888898957,234.68859271891415
                    15.638076654074366,48.42428655327223,235.16658372990787
                    15.638119583939378,48.424247363120976,235.23978322185576
                    15.63812053580915,48.424250147060754,235.368095359765
                    15.638176025164052,48.42418861421647,235.69901500083506
                    15.638237920809823,48.42413208419639,235.38810710143298
                    15.638244858806875,48.42411011885845,235.26266119256616
                    15.638244858806875,48.42411011885845,235.26266119256616
                    15.638244858806875,48.42411011885845,235.26266119256616
                    15.638244858806875,48.42411011885845,235.26266119256616
                    15.638358663765805,48.42402519022025,236.39115727413446
                    15.63843291067987,48.42395839132738,236.33907330874354
                    15.638500662122853,48.423903260110706,236.50481148343533
                    15.63853362859902,48.423866745416284,236.89677381142974
                    15.638597620902507,48.423823076908846,237.6269033746794
                    15.638645024781306,48.4237676140933,238.01632496714592
                    15.638699096152843,48.42372509263919,238.5749077340588
                    15.638734454321579,48.42367963725384,239.0323885967955
                    15.638780559623076,48.42363226577421,239.48465709760785
                    15.638819040586407,48.42359324360578,239.4081921968609
                    15.638884541277937,48.42355928048423,239.27463247068226
                    15.638918483519802,48.42351919417374,238.6761010894552
                    15.63897565755747,48.42348048133049,238.21556626446545
                    15.639015775264102,48.42344692072788,237.21310556586832
                    15.63901321409722,48.423446307314975,237.28254402335733
                    15.63901321409722,48.423446307314975,237.28254402335733
                    15.63901321409722,48.423446307314975,237.28254402335733
                    15.63901321409722,48.423446307314975,237.28254402335733
                    15.63901321409722,48.423446307314975,237.28254402335733
                    15.63901321409722,48.423446307314975,237.28254402335733
                    15.63937389417722,48.42317003511452,235.34465733729303
                    15.639433017494639,48.423130599759425,235.77507952228189
                    15.639461071316761,48.423107501028525,236.00132459960878
                    15.639461071316761,48.423107501028525,236.00132459960878
                    15.639461071316761,48.423107501028525,236.00132459960878
                    15.639628114471883,48.42298048982998,238.08293150831014
                    15.639667852591106,48.42294751369655,239.48801449500024
                    15.639710218921696,48.42290285523863,240.68194442149252
                    15.639756599240608,48.42286440241753,241.71819660719484
                    15.639799657437434,48.422826687296066,242.69074711669236
                    15.639840952208328,48.42278338413938,244.01243882067502
                    15.639886539669517,48.42275377180006,244.9504022737965
                    15.639932145024119,48.42272235024847,245.78484375122935
                    15.63996908351674,48.42269039979996,246.2341865412891
                    15.640018893173007,48.42264666656439,246.08715051598847
                    15.64003908141885,48.4226426445893,246.0775736439973
                    15.64003908141885,48.4226426445893,246.0775736439973
                    15.64003908141885,48.4226426445893,246.0775736439973
                    15.64003908141885,48.4226426445893,246.0775736439973
                    15.64003908141885,48.4226426445893,246.0775736439973
                    15.64003908141885,48.4226426445893,246.0775736439973
                    15.64003908141885,48.4226426445893,246.0775736439973
                    15.64003908141885,48.4226426445893,246.0775736439973
                    15.640402876570077,48.42227463113325,241.7352936975658
                    15.64044158264027,48.4222224296256,241.7720504971221
                    15.640467375767335,48.4221826178614,241.95110829919577
                    15.640467375767335,48.4221826178614,241.95110829919577
                    15.640569504059604,48.42206481050893,242.33598454017192
                    15.640608307584122,48.42201665590466,242.52217119187117
                    15.64064174516803,48.42198574034911,242.6433135252446
                    15.640713144303263,48.421919793815796,242.41144873574376
                    15.640764741121211,48.421871941669856,241.5540246134624
                    15.640824632990038,48.42181693980461,240.3937211316079
                    15.640881489045375,48.42176609610738,239.21077619772404
                    15.64094341118309,48.42172431758476,238.03447193372995
                    15.641011535586086,48.42167079303202,237.26469987351447
                    15.641073178664225,48.421615075245924,237.14400810096413
                    15.641140822653952,48.421559962095365,237.53277784585953
                    15.64120142303141,48.421508188026294,238.13096246123314
                    15.641258434164458,48.42144935846883,239.07894297502935
                    15.641336299747461,48.42138596344125,239.92057405691594
                    15.641409720329913,48.42132177474555,240.6954214135185
                    15.64148640396769,48.421263590442514,241.7034136261791
                    15.641559837409156,48.42120804292748,242.66447598766536
                    15.641634475877732,48.42115225674355,243.5526099326089
                    15.641716607382886,48.421101675242774,244.16632949747145
                    15.641789517444177,48.42103640700063,244.58252760302275
                    15.641872995623896,48.420971816628395,244.79400775395334
                    15.641949275662824,48.42091508657636,244.95019241701812
                    15.642031397666361,48.42085084705498,244.54040268436074
                    15.642117680057064,48.4207863216224,243.90366574842483
                    15.642204256530345,48.420723050380914,243.54113292042166
                    15.642293246404902,48.42067665748799,242.2564207147807
                    15.642384106157344,48.420621315632694,240.91400225367397
                    15.642482327076891,48.42056510184208,239.20610215887427
                    15.642582350466494,48.42049998466426,238.24113266263157
                    15.642691165177844,48.42044042224546,237.88116728235036
                    15.642799496830136,48.4203842425108,238.63985896389931
                    15.642908131840844,48.42032217856723,240.0187087636441
                    15.643011493194233,48.420259949928635,241.7780730575323
                    15.64313365204174,48.42019836344946,243.91902849264443
                    15.643235126330168,48.42013741592889,245.9511862890795
                    15.643342025418034,48.420070089147494,248.19728588685393
                    15.643451520757514,48.42000595652698,250.5999577268958
                    15.643558614879842,48.41994140819649,252.75398824177682
                    15.643660807987168,48.41987780876641,255.08069767709821
                    15.643762868547793,48.41981516829282,257.3350486708805
                    15.643861496013301,48.419750699362524,259.5257139271125
                    15.643953040066133,48.419688949146035,261.664208621718
                    15.644034957708087,48.4196270677571,263.5371221397072
                    15.644106328032864,48.41956449851826,265.66532221250236
                    15.644177143796993,48.41950112521148,266.9845994915813
                    15.644244020077075,48.41943493556054,268.03532150015235
                    15.644306911275155,48.41937270721281,269.03257787041366
                    15.644369877266689,48.419316688472584,269.84604624751955
                    15.6444346775869,48.419258234367526,269.9883640203625
                    15.644501039105826,48.41920398541727,269.088268103078
                    15.644563805962443,48.41914792302917,268.27325641643256
                    15.644623304616882,48.4190865846153,267.09326192270964
                    15.644677605521903,48.41903406022252,264.8933763410896
                    15.644736073391414,48.418983023686124,262.91094768885523
                    15.644789997250331,48.41892928106744,260.68576846830547
                    15.644852591089625,48.41887601363633,258.47031480725855
                    15.644912740973012,48.41882644644983,256.3592166118324
                    15.644972847229589,48.4187807156767,253.62658172100782
                    15.645040021531997,48.418733228398786,250.67647411860526
                    15.645103318283297,48.418687345510726,247.91206232551485
                    15.64516771507899,48.41864424431464,245.74907080829144
                    15.645245790328927,48.41859657650339,243.4086556704715
                    15.645318554685252,48.418551401731285,241.32210995163769
                    15.645399923589455,48.41850443107401,239.46217408496886
                    15.6454828838354,48.41845805489251,238.10250601544976
                    15.6455658181668,48.41840458353886,237.27628529351205
                    15.645658480382334,48.41835508058455,236.60125903133303
                    15.645738894997145,48.41831034177507,237.0684604048729
                    15.645830077390556,48.41826414634511,237.64095890987664
                    15.6459316840152,48.41820839292811,238.50796644296497
                    15.646034014167633,48.41816219405549,239.59560001641512
                    15.64613896969514,48.41812053926255,241.22538989968598
                    15.646240555356005,48.41808014840133,242.72536596935242
                    15.646343909363393,48.41802704806704,244.21602977626026
                    15.64645732346075,48.4179868311706,245.6174111654982
                    15.646562267211877,48.41793304301823,247.25898147188127
                    15.646675908035256,48.4178883509938,249.01053833775222
                    15.646802225059465,48.41784274395741,250.34042964316905
                    15.646912432778146,48.41779227196579,250.82457802072167
                    15.647028942449042,48.41774030954611,251.24645317997783
                    15.647146624740312,48.41769472452456,251.41661571525037
                    15.647278878100122,48.41764806100199,251.2928492296487
                    15.647403388290932,48.41760377777647,250.40802896860987
                    15.647532206079745,48.4175658350673,249.25015024282038
                    15.647672186428572,48.417524131290705,247.77125437092036
                    15.647794976219622,48.41749041856794,245.6952194320038
                    15.647934387488963,48.417456137767644,244.00946059729904
                    15.648070511830992,48.4174242871918,242.41102678887546
                    15.64820295580674,48.41740100205767,241.0884522050619
                    15.648339330172595,48.417368906332015,240.08241595700383
                    15.648473722825072,48.41733394743409,239.11811858695
                    15.648603290923194,48.41730425241492,237.80337963346392
                    15.648746640572554,48.417272145746196,236.54108073562384
                    15.648873924848022,48.41724205814934,235.07493638433516
                    15.649006112849062,48.41721193253692,234.3717731051147
                    15.64914521762958,48.41718073218551,233.7132284073159
                    15.649268792915986,48.41715763070066,233.38466214947402
                    15.649404779657683,48.417136416401945,233.59880774002522
                    15.649538380026883,48.41711568913275,233.65476545598358
                    15.649686980758966,48.41710745573893,233.86397431977093
                    15.649816827331568,48.417092357488585,233.92174692358822
                    15.649953321458174,48.41708475509399,234.18897613603622
                    15.650087859989668,48.41707535496799,234.11421275977045
                    15.650218433883719,48.417068709366546,234.19690698571503
                    15.650357838126483,48.41705811186525,234.53118026535958
                    15.650493767166296,48.417053252752176,234.6779300328344
                    15.650629066046374,48.417045662896946,234.96306283026934
                    15.650764506630587,48.4170346252665,234.89035603124648
                    15.650891235094011,48.41702137209108,235.04559532925487
                    15.651029105815681,48.417015298475036,235.247403094545
                    15.651168336775974,48.41700575120004,235.48689328692853
                    15.65129069228531,48.416988053408865,235.5298729930073
                    15.65143180458195,48.41697684162368,235.80655693355948
                    15.651547702184251,48.41696043708576,235.04654303845018
                    15.651677318883191,48.41694398397826,233.94249482732266
                    15.651803230162852,48.41693146143888,232.68087172694504
                    15.651931367806679,48.416917517389564,231.2986342003569
                    15.652061897464135,48.416905435153836,230.2052963608876
                    15.652198598274337,48.41689118284499,229.6573658362031
                    15.652325319469165,48.416872710012484,229.98948095738888
                    15.652458742271676,48.416858470722374,231.02200407534838
                    15.652585647435892,48.41685064796273,232.48526151198894
                    15.652729953168292,48.41683916638892,233.75902383495122
                    15.652860489539588,48.41683044643232,235.29847726691514
                    15.652988995048894,48.416817846313684,237.31329532898962
                    15.653120092567553,48.416806549416705,239.55862844828516
                    15.653256200564092,48.416790994152464,242.24568873550743
                    15.653372445709778,48.41677645778637,244.6112498147413
                    15.653479903130183,48.41676892302481,246.75278896465898
                    15.653592230498973,48.41676248094444,249.07090889010578
                    15.653699252695676,48.416747479061634,250.22322130855173
                    15.653799523458297,48.41673799333631,251.5265653450042
                    15.653895637054642,48.41672627189893,252.3294834010303
                    15.653991597350446,48.416722411080215,252.83035619650036
                    15.654075458580216,48.41672095665729,253.11145666986704
                    15.654160263058047,48.4167155986063,252.68560705333948
                    15.654240618156441,48.41671365502859,252.1442096075043
                    15.65432885372633,48.416699345117216,251.04050099290907
                    15.654419188426795,48.41669083346567,249.7019054647535
                    15.654513989363963,48.416683534827314,248.66980516538024
                    15.654601424726843,48.41668231729189,248.31214540544897
                    15.654683661455673,48.416673362072146,248.1748387431726
                    15.654766773710508,48.41666507229598,248.33145704492927
                    15.654856674641183,48.41666254768383,248.93599810637534
                    15.654935882790266,48.41665613362544,249.70939276646823
                    15.655021091360014,48.41664449126601,250.75826561357826
                    15.655101911216684,48.41663428746561,251.94236264843494
                    15.65518149992433,48.416629351817384,252.97487343195826
                    15.655256861580032,48.41662304864494,254.23033974971622
                    15.655330153395846,48.41661999121574,255.40549670904875
                    15.655400710094048,48.4166124774536,256.49930069129914
                    15.655465089943046,48.41660361788602,257.20128487888724
                    15.655532697660773,48.41659971495264,257.56107292417437
                    15.655602836893479,48.41659736402065,257.9385271342471
                    15.655670416815395,48.41659408870968,258.0401536067948
                    15.655742966386367,48.416589878886406,257.71683662291616
                    15.655813767067272,48.41658779800558,257.0581920668483
                    15.655884411311273,48.41657802601304,256.48231520317495
                    15.655949680616395,48.41656622028599,255.56597640551627
                    15.656020964916637,48.41655054481327,255.14821192715317
                    15.656023978032305,48.41655118378055,255.13769844081253
                    15.656176605192226,48.41653529351513,253.77032489143312
                    15.656256629677312,48.416525468810406,253.2706168787554
                    15.656336519889642,48.416511478483265,253.44690203294158
                    15.656430535406297,48.416501112033856,254.30077604576945
                    15.656518705686251,48.41648843479668,255.4198762755841
                    15.656605111574132,48.41647856361558,256.44250829238445
                    15.656683945483017,48.41647267334883,257.7226616255939
                    15.656769974046544,48.416461951132646,258.8631272893399
                    15.656856155924846,48.41645039660728,260.14436083380133
                    15.656949540245,48.41643853439721,260.98885764181614
                    15.657047425702828,48.41642980499316,262.13887948635966
                    15.65714191005567,48.416413131239935,262.92799320816994
                    15.657241094197518,48.416398603194985,263.8393477983773
                    15.657338524767548,48.41638101117763,264.2821472287178
                    15.657434918344986,48.41636486707722,264.9785695131868
                    15.657537703806806,48.41634591450911,265.04799691028893
                    15.657628398301826,48.41632385572598,264.72974551375955
                    15.657726175585195,48.4163048836818,263.7405915837735
                    15.657811611221883,48.416297032347906,263.0343967564404
                    15.657907993840873,48.41627544378109,262.1570372385904
                    15.657967385666206,48.41625983626857,261.49758719466627
                    15.658100512308614,48.41623053142184,260.45630823168904
                    15.658198416276933,48.416211103322325,259.7618463486433
                    15.658292320925538,48.41619175631446,259.1171024804935
                    15.658383568040032,48.41617733021329,258.59202824160457
                    15.658492096547388,48.41615219552467,258.33028322365135
                    15.658595132825813,48.4161318099283,257.8446292160079
                    15.65869521453078,48.41610768405355,257.28401071392
                    15.658793814132721,48.41608948654484,256.444344997406
                    15.658893776885826,48.41606548048485,255.48108405061066
                    15.658996759234322,48.41604943236641,254.62389675155282
                    15.659099361385843,48.41603033099048,253.81987241096795
                    15.659197566161222,48.41601485152201,253.41412702389061
                    15.65930854156556,48.41599384832015,252.75038276147097
                    15.659414872732293,48.415969839194354,252.39062231313437
                    15.659514607336606,48.41595187230744,252.8399283066392
                    15.659614432523977,48.4159362355351,253.63824815489352
                    15.65973104265857,48.41591436914899,255.0702930567786
                    15.65982207315502,48.415910736715524,256.28440400213003
                    15.659903966012289,48.41589714632912,257.6756043173373
                    15.660004329841433,48.41587802704042,258.8853290807456
                    15.660086864207775,48.4158658726788,260.6308010853827
                    15.66017955610689,48.415850691641694,262.38154040742666
                    15.660253113713487,48.4158393262499,263.7119400566444
                    15.660336685043942,48.415824731497565,265.2078726235777
                    15.66040849398985,48.41580620127361,266.0909143919125
                    15.660470026482418,48.41578316079409,267.26520932652056
                    15.660541215407815,48.41576601873187,268.0345813119784
                    15.660605881484686,48.41574987903251,268.49368244130164
                    15.66067116011716,48.41573707032096,269.3060622261837
                    15.660725934350744,48.41571421188396,269.7497047642246
                    15.660785592394307,48.41568990671175,270.08524994924664
                    15.660837532677395,48.415667868398685,270.61273206491023
                    15.660885101642872,48.41563877265434,270.99594584386796
                    15.66093841502164,48.41561324957732,271.1749209817499
                    15.66098996696354,48.4155856200182,271.1255253078416
                    15.661030130134009,48.415565274787326,271.02492800261825
                    15.66106698123588,48.415544765393726,270.89894295856357
                    15.661114593963827,48.41551943665775,270.6895883809775
                    15.661162272644706,48.41548958160281,269.8823826126754
                    15.661205678157872,48.41546847092043,268.83686730638146
                    15.66122615542628,48.41545723889524,268.1918279081583
                    15.66122615542628,48.41545723889524,268.1918279081583
                    15.66122615542628,48.41545723889524,268.1918279081583
                    15.66122615542628,48.41545723889524,268.1918279081583
                    15.66122615542628,48.41545723889524,268.1918279081583
                    15.66122615542628,48.41545723889524,268.1918279081583
                    15.66122615542628,48.41545723889524,268.1918279081583
                    15.66122615542628,48.41545723889524,268.1918279081583
                    15.661590528330485,48.41530740358455,252.84715397283435
                    15.661638038629695,48.41529171530888,250.7184003777802
                    15.661695832000529,48.41527546882625,248.65688434056938
                    15.66173310679748,48.41526955814661,246.1519360523671
                    15.661791622084866,48.415244761229026,245.17835225909948
                    15.661857375439647,48.415226152440766,244.477788685821
                    15.661920786783565,48.415207311613464,244.39992043282837
                    15.661974460774484,48.415193633389684,244.55056643858552
                    15.662041820749849,48.41518466488638,245.28297408856452
                    15.662103882090033,48.4151733840187,246.87590614147484
                    15.662167802882642,48.41516060356571,249.05210831854492
                    15.662229791550706,48.41514797843477,251.5824769223109
                    15.662286659428364,48.415140304291754,254.61822908371687
                    15.662346743378384,48.415125177599904,258.1731237899512
                    15.662381327830962,48.41511952112461,260.5363604705781
                    15.662462718811573,48.415095763005176,266.3382840715349
                    15.662515747588408,48.415080127078255,270.8617561785504
                    15.66256086636239,48.41506086106655,275.79713953565806
                    15.662595066743622,48.415040114430006,280.1709535922855
                    15.662621188225764,48.415013114244864,284.63224715180695
                    15.662648931980591,48.414985950931474,288.5855120969936
                    15.662683342285272,48.41495632918976,292.5972785335034
                    15.662716601711988,48.41492710692516,296.4352891286835
                    15.662746691952403,48.414892450784414,299.94420397281647
                    15.66276629366511,48.414863408010895,303.2525214590132
                    15.662792301847277,48.414830234939004,305.63184150494635
                    15.662814273744043,48.41479563830922,307.21623933967203
                    15.662831001178784,48.414755707401056,307.9591158879921
                    15.662853642246167,48.41470921536382,308.38401585351676
                    15.662874213573893,48.41467044847914,308.10851024184376
                    15.662903313115322,48.4146318408628,307.96093367319554
                    15.662930686170508,48.41459085246907,306.7448062999174
                    15.662947533360475,48.414551087098296,305.0180063666776
                    15.662976343070227,48.414504804253234,303.22955692000687
                    15.663012509546903,48.414457587386906,301.1926130792126
                    15.66303925919967,48.414401214824366,298.5972845070064
                    15.663067148524208,48.414361878648656,296.15283900219947
                    15.66309942016821,48.41430864988474,293.50858464371413
                    15.66313118784003,48.41425399648609,290.88774975575507
                    15.66316826061675,48.414201924770445,288.5153848901391
                    15.663197057418099,48.414149024199006,286.1039411937818
                    15.66323794948813,48.414094086373744,283.3415395813063
                    15.663288749597008,48.41404008305433,280.2235485203564
                    15.66333065737771,48.41398365033093,276.73707376327366
                    15.663381476648375,48.41393861320126,273.0228003617376
                    15.663433910298224,48.41389032208625,268.8424656735733
                    15.663482533897795,48.41385206253114,264.10392533801496
                    15.663547458680304,48.41380469608629,259.7618088023737
                    15.663613394969207,48.413763272193165,255.6373093696311
                    15.663687541285247,48.413726280119725,251.74492821563035
                    15.663751666200405,48.41369179104132,248.44856371264905
                    15.663824001398927,48.41365548343842,245.95979720167816
                    15.663901205076805,48.4136211294328,243.8300152728334
                    15.663975218582362,48.41359461088037,242.3444557832554
                    15.664052902079568,48.41356856786082,241.7435942068696
                    15.664126594662495,48.41354835107947,241.32884775754064
                    15.664200048202957,48.41352576513379,241.10766393784434
                    15.664284429606807,48.413503815139414,241.18109370581806
                    15.664370316944307,48.413493440517094,242.43751604296267
                    15.6644590765616,48.41346691147675,242.92790760472417
                    15.66454134108463,48.413446374042536,243.6497823689133
                    15.664638608067326,48.413424335070985,244.0281732212752
                    15.664729767678718,48.41339577264367,244.68471958115697
                    15.664826316786062,48.41337851389467,245.11485508829355
                    15.664920323364523,48.41335431783794,245.13026120327413
                    15.665022914186327,48.413330285972016,245.28586853761226
                    15.665124293071084,48.41331349915353,245.3272804869339
                    15.665220178430047,48.41329617256299,245.48815465718508
                    15.665338074546078,48.41327437402596,245.50694831926376
                    15.66544414944026,48.41325348086171,245.65231381170452
                    15.665559167291578,48.41323123054155,245.1831477433443
                    15.665663543632594,48.41320839139805,244.681168127805
                    15.665781725562557,48.413187306298774,243.94955806527287
                    15.665903059071534,48.413171802507726,243.05769607611
                    15.666018647743726,48.41315192349659,242.2444216599688
                    15.666136574075493,48.413134265519055,241.6120340274647
                    15.666258103049257,48.41311916817823,240.83557552471757
                    15.666370482889345,48.41310556168129,239.69890822377056
                    15.666484427239459,48.41308903888695,238.56206986587495
                    15.666595341781205,48.41307277418223,237.6898778891191
                    15.666705897105139,48.413054819649936,236.9265964133665
                    15.666817815069319,48.41304376806111,235.95621649734676
                    15.666927156206908,48.41303723465967,235.27611619699746
                    15.667034391683988,48.41302871526361,234.54852674156427
                    15.667133630359428,48.41303190127837,233.42051236890256
                    15.667232022729378,48.41302971331693,231.7907559555024
                    15.667328535917305,48.41302783294988,230.35716332122684
                    15.667428150178308,48.41302498628842,228.76379922498018
                    15.66752866156094,48.41303072437762,227.46127734240144
                    15.667621822359365,48.41303711358075,226.5370518201962
                    15.667716864549309,48.41303284375258,225.60805456712842
                    15.667818602285228,48.41303593646215,225.08441655430943
                    15.667907075867582,48.413032707987966,224.8836864233017
                    15.66799326038423,48.413033486512525,224.75198826100677
                    15.668081171875361,48.41303944544941,224.90151937119663
                    15.66817440291553,48.41304182707076,225.7517103953287
                    15.668261322547215,48.41304747472856,226.61181357502937
                    15.668347295823715,48.413051517172796,227.2836776394397
                    15.668433828238637,48.41305671316326,227.77156040351838
                    15.668512127517118,48.41306548766281,228.84528116695583
                    15.668577513081335,48.41307377071683,229.19249877054244
                    15.668600825309902,48.413074671959706,229.20305602718145
                    15.668740498525217,48.413089250823575,229.72969543375075
                    15.668847236140449,48.41310503627784,230.2188883703202
                    15.668934588382415,48.41311976418824,230.7505765305832
                    15.669023344215798,48.41312875680948,231.3794019445777
                    15.669108718418684,48.41313847477068,232.0337160062045
                    15.669194756119232,48.41315476555263,233.112731218338
                    15.669285969597968,48.413168609769095,234.03828702680767
                    15.669381308758638,48.41318151123824,234.86655679624528
                    15.669464461071245,48.41319042851251,235.6262177331373
                    15.669543418363714,48.41320513366398,236.53428731765598
                    15.669639546076745,48.413221296690814,237.04299220629036
                    15.66973786840017,48.41323194057157,237.32078531943262
                    15.669834605598552,48.413247368463935,237.41751942876726
                    15.669933325725982,48.413264139167104,237.58287022914737
                    15.670033816535842,48.41327863390301,237.41494335606694
                    15.670124597016498,48.41329147481908,237.09665171429515
                    15.670231566378298,48.41330584391185,236.56019212957472
                    15.67033815726554,48.413328873359035,236.25906469859183
                    15.670442967010045,48.41334706763124,236.10319251939654
                    15.670540999945908,48.413360730899036,235.88590644299984
                    15.670638704054062,48.413374642655604,235.8497223490849
                    15.670734418262574,48.41338654071185,235.9054879695177
                    15.670836825633074,48.413401224108156,235.85557183250785
                    15.67094348383046,48.41342106450274,236.01694613322616
                    15.67104973856103,48.413429830226825,236.02234600670636
                    15.671155642873407,48.41344536580713,236.01693090423942
                    15.671261728588847,48.41345632737864,236.29455367848277
                    15.671362586710273,48.41346695815207,236.4703947659582
                    15.67147604536278,48.41347968636622,236.2191789187491
                    15.671587070192029,48.413491052297516,236.39897238556296
                    15.671693560501687,48.413506272676706,236.63758474588394
                    15.671800162187491,48.41351425833741,236.62919538840652
                    15.671918269931759,48.4135272482321,236.16665801871568
                    15.672024961200826,48.41354252194157,235.83437930606306
                    15.672135682050047,48.41355343506967,235.74092569574714
                    15.672249932615784,48.41356269345472,235.31543457508087
                    15.67236701490686,48.41357345964135,234.9088852563873
                    15.672485630402731,48.41358207911127,234.18062303029
                    15.672593374452411,48.41358733565364,233.84789908584207
                    15.672710247192107,48.413604110849995,233.42293599341065
                    15.672828844377182,48.413612923857535,233.34034972917289
                    15.672944248231357,48.413616640058144,232.78106102906168
                    15.673062326782743,48.41362282109949,232.61580987554044
                    15.67317552728098,48.41363184424433,233.03750725463033
                    15.673300355505258,48.413645195100464,233.9303650893271
                    15.673413574107188,48.41365573738545,234.69697692710906
                    15.673534953276075,48.41366521945244,235.49452809989452
                    15.67365434835361,48.41367138425192,236.0028365952894
                    15.673776201172023,48.413678453332416,236.3939250689
                    15.673889741242611,48.41368429224488,236.90460042841733
                    15.674002474892301,48.41368879129303,237.75405391771346
                    15.674118581094284,48.413689857155504,238.2298108767718
                    15.674237687069596,48.41369743190295,239.16148914862424
                    15.674350388352169,48.413695577510644,239.54896242171526
                    15.674464330391087,48.413702116580225,239.92313529737294
                    15.674581170313461,48.41370410797373,239.80232635326684
                    15.67469995289307,48.4137095922923,239.223910568282
                    15.674816093321922,48.4137030881002,238.13160354085267
                    15.674931480344593,48.41370646593146,236.50590229500085
                    15.675041703270818,48.41370904053238,234.82520860712975
                    15.675156578491487,48.413715773563624,232.8098970502615
                    15.675268986066241,48.41371997266862,230.58666319400072
                    15.6753783957154,48.413722544367,228.23683059308678
                    15.675488138402999,48.413732098145694,226.0564539236948
                    15.675597579359273,48.413737901770354,223.88258895650506
                    15.675698884113569,48.413744147724856,222.0061273360625
                    15.675801468369277,48.41375271844617,220.43941726442426
                    15.67590767535481,48.41375696523677,218.69950141198933
                    15.676005047810625,48.413761180432985,214.70969896856695
                    15.676101673638744,48.41376792777435,211.17594696581364
                    15.676206818431185,48.41377990821321,208.6013653697446
                    15.67630935634065,48.413784271626696,206.42061364743859
                    15.67640857054331,48.41379685212549,204.73153068032116
                    15.676493733424865,48.413806478034445,203.349234954454
                    15.676577828797354,48.41381767102294,202.17334759794176
                    15.676671642979871,48.413831549087924,201.50499450229108
                    15.67675691095177,48.4138436208182,200.50898847542703
                    15.676842744030793,48.41385705443686,199.63951299898326
                    15.676929259584583,48.41386645431578,198.86699731647968
                    15.67700842369816,48.413879676044544,198.25003578327596
                    15.677092470774651,48.41388979019164,197.69592275004834
                    15.67717652663104,48.41389996612263,197.11372328549623
                    15.6772587053859,48.4139119888871,196.70615800563246
                    15.677333743949331,48.413923049322435,196.1902458379045
                    15.677406670092095,48.4139347230496,195.87369687389582
                    15.67748566884481,48.41395105023268,195.45183126814663
                    15.677562910986124,48.413962241671236,195.35213153250515
                    15.677636792916548,48.413973062989484,195.40491538401693
                    15.677710344770032,48.41398810387638,195.4269633097574
                    15.677785859202626,48.413998317212986,195.56752581801265
                    15.67785315120661,48.414009847590826,195.71549900621176
                    15.677924269011575,48.41402226895106,195.84272045828402
                    15.677993449705708,48.414037104911095,196.0076551605016
                    15.67806231325057,48.414048860095775,196.3722800426185
                    15.67812988466358,48.41406139130215,196.38604665733874
                    15.678199248771993,48.41407560857891,196.42913962341845
                    15.67826948959389,48.414091752332304,196.42766831070185
                    15.678331433447326,48.41410345129297,196.34858797304332
                    15.678395334274825,48.414118959724455,196.08588097803295
                    15.678460878659536,48.41413071406709,196.3302140738815
                    15.678530292641806,48.414146745113946,196.5430159373209
                    15.678593711795385,48.41416453980053,196.94379825238138
                    15.678657721778693,48.414182042747626,197.07749378681183
                    15.678713886297647,48.41420339480239,197.30211763922125
                    15.678775697513489,48.41421964245913,197.55093147791922
                    15.678812079987772,48.41423212151879,197.85891985800117
                    15.678899874553332,48.414259476775946,198.27350380830467
                    15.678956620416427,48.41427924825698,199.50421853549778
                    15.679021344391868,48.414298896705695,200.5208870358765
                    15.679084834842984,48.414324919088116,201.60057776700705
                    15.679137913976904,48.414340104236594,202.18645800091326
                    15.679200306385185,48.414361262690704,203.43844847846776
                    15.679258761382037,48.4143770835137,204.23325474746525
                    15.679319587174605,48.41440327744699,205.0553593300283
                    15.679378933748083,48.414424847425934,205.54368270002306
                    15.67943562899122,48.414435048651455,205.85597597900778
                    15.679497476945631,48.41445268114425,205.9393177246675
                    15.679556039946174,48.414469164732154,205.7636222122237
                    15.679614085726739,48.41447405377649,205.38510565180331
                    15.679676990195988,48.41449065512637,204.50746896769851
                    15.679740193690417,48.41450831384301,203.5244856942445
                    15.679794926784295,48.41451960349971,202.5957825584337
                    15.679857554663752,48.41453415295829,201.91430712025613
                    15.67992472409102,48.41456353971972,200.9940879456699
                    15.679979477562716,48.414572436259185,202.04305765684694
                    15.68004203752194,48.414589772044614,203.040729903616
                    15.680077922053314,48.414600143096315,203.67182301357388
                    15.680170114495203,48.414610377591146,205.33100765384734
                    15.680233679473133,48.414630124745315,206.61370767932385
                    15.680308539697618,48.414647726043896,207.915313154459
                    15.680380345967603,48.41466064659127,208.87818333413452
                    15.680448291380046,48.414676953389126,209.97779742628336
                    15.680511906860566,48.414680654381165,211.2461690781638
                    15.680583894928724,48.41469206624581,212.2615176215768
                    15.68065478945933,48.41470038474787,215.78366640303284
                    15.68072874989542,48.414717053149346,218.90926695708185
                    15.680794722920327,48.41473343790211,222.05156041961163
                    15.680869583896952,48.41474474266933,225.028548611328
                    15.680936609072315,48.41475601049317,227.51323591452092
                    15.680999466977015,48.41476425723082,229.9383631888777
                    15.681071939648787,48.41477281142096,232.36848403513432
                    15.681137314065413,48.414780918596676,235.01368700247258
                    15.681218778965485,48.414794683623235,237.42252902686596
                    15.681299098135252,48.41481049742911,239.73448617663234
                    15.681377696135026,48.41482369480435,242.1387432673946
                    15.681453544872468,48.414820822636365,244.78034503478557
                    15.68152367797226,48.41482450648408,247.86698258016258
                    15.68158181923305,48.414828532691786,249.852669255808
                    15.681691090021832,48.41483829944545,252.6856349669397
                    15.681766256805004,48.4148428237668,254.86716529820114
                    15.681857716043288,48.41485039432642,256.6509028170258
                    15.681946932682873,48.41485368157537,258.31724086310714
                    15.682034461444898,48.41485981900159,259.70806616544724
                    15.68212674611251,48.414863817236586,261.10738842654973
                    15.682208783671799,48.41486835746833,262.94788857456297
                    15.682294975185272,48.4148649744118,264.9579200176522
                    15.68239194746891,48.414858222339745,266.8149964194745
                    15.682479358293815,48.41485550065947,268.81084650196135
                    15.682573306227173,48.41485182856561,270.67842432670295
                    15.682655487295845,48.41484754603715,272.65498938411474
                    15.682746660806245,48.41483911023297,274.28985584154725
                    15.682838400824812,48.41483131893094,275.7515633115545
                    15.682925854139482,48.41482208180884,276.87020170874894
                    15.683022974465121,48.41481398928078,277.6683327611536
                    15.683115256099507,48.41480002626899,278.15778415091336
                    15.683202941422634,48.414790299281584,278.1460275296122
                    15.68330240643942,48.414764835065405,278.59196732286364
                    15.683390277200479,48.41474863358518,278.50516574829817
                    15.68347150976126,48.414735657512,278.51198320742697
                    15.683561765360215,48.41471711595885,277.9940637592226
                    15.683651430666893,48.41470277574125,277.2185156084597
                    15.683742990375109,48.41468642606905,276.5957234557718
                    15.683833355432439,48.414668579647355,276.35992883332074
                    15.683920552006548,48.41464772465474,276.45446674432606
                    15.68401109629209,48.41462498074008,276.8300631828606
                    15.684109995639014,48.414598353284575,277.5299995318055
                    15.684195794824353,48.41458295856741,278.2751676719636
                    15.684300212101048,48.41455517867584,278.76665330305696
                    15.684388156303772,48.41454232693278,279.3772004088387
                    15.68449843932557,48.41452370900993,279.60805818159133
                    15.684595628405793,48.41450915111128,280.3675031280145
                    15.684688805603301,48.414491284305456,281.0977944023907
                    15.684789527638122,48.414475571874604,281.8461931589991
                    15.684890823300705,48.41445927128297,282.9843106167391
                    15.684982195200933,48.41443662004162,284.33808194380254
                    15.685082419469255,48.414416658225605,285.3357031606138
                    15.685175522164425,48.41439677316203,286.45546555891633
                    15.685268031087173,48.41437719488563,287.17558411415666
                    15.685358168042296,48.41435828675903,287.08736448083073
                    15.685441552320592,48.41434226319658,286.49236586503685
                    15.685532790162176,48.41432064128864,285.60492052696645
                    15.685613099405817,48.41430005227126,283.9479106608778
                    15.68570030797327,48.4142837849962,281.08579294849187
                    15.685785810572417,48.41426453888423,277.9692026497796
                    15.685871719357195,48.41424533563708,274.24120374396443
                    15.685962975273599,48.41422942396855,270.2067489679903
                    15.68604802628529,48.414217095762915,265.8331013265997
                    15.686133837522354,48.41420704108368,261.171454962343
                    15.686225693258558,48.41419152754436,256.3689239015803
                    15.686321496798117,48.41418901387584,251.5828068992123
                    15.686404044944407,48.41418145247717,247.3044898873195
                    15.68649686277669,48.41417394952252,243.37255970109254
                    15.686575022793512,48.41417281044665,239.89716168679297
                    15.686654119971548,48.41416539400789,236.8877198761329
                    15.686734157049875,48.41416321610338,234.50743482075632
                    15.6868071886235,48.41416051913819,232.64290714357048
                    15.686889769497887,48.414155164445354,230.91942933294922
                    15.686960740529392,48.41415439164078,229.5280002625659
                    15.68703467263292,48.414154967648265,227.84423783700913
                    15.68711355745591,48.41415269589916,226.88668594043702
                    15.687184045059327,48.41415556813962,226.07122013531625
                    15.687252707224014,48.4141563159231,225.67240402288735
                    15.68731026521544,48.41415769865185,225.46017549280077
                    15.687382455454093,48.41416516108979,225.58390116877854
                    15.687444605550883,48.41416893522593,226.29214176908135
                    15.687496285204613,48.41417606824994,227.20079331379384
                    15.68757505986001,48.41416848145285,228.2294906899333
                    15.687640186248267,48.41416777999536,229.14809483941644
                    15.687708194596446,48.414166954735386,229.75977273657918
                    15.687775978447402,48.41417009371892,230.5545828109607
                    15.687847155034095,48.41417521824909,230.9813617663458
                    15.687910722545515,48.41417736285734,231.34336093068123
                    15.687974341266106,48.4141803926867,231.92658083420247
                    15.688035109065627,48.41417677516931,232.1438348563388
                    15.688104966137345,48.41417949587081,232.65757136885077
                    15.688168835792268,48.414182886583276,232.61575295124203
                    15.6882326236091,48.414180244524694,232.5075037945062
                    15.688304400728859,48.414169796459504,232.18084817472845
                    15.688368011470388,48.4141675125923,231.66463789343834
                    15.688428486432564,48.414171859209006,231.1820022603497
                    15.688491495141925,48.414170902857464,230.67610008828342
                    15.688555057743809,48.414177406265026,230.11150103528053
                    15.68861804896775,48.41418170078723,229.47411241102964
                    15.688659173173395,48.41418009540167,229.23011652752757
                    15.688659173173395,48.41418009540167,229.23011652752757
                    15.688659173173395,48.41418009540167,229.23011652752757
                    15.688807270860005,48.41418531246683,229.01794498506933
                    15.688903941961021,48.41419020400414,228.48863417841494
                    15.688932796075656,48.41419034421474,228.24503607396036
                    15.688932796075656,48.41419034421474,228.24503607396036
                    15.688932796075656,48.41419034421474,228.24503607396036
                    15.688932796075656,48.41419034421474,228.24503607396036
                    15.688932796075656,48.41419034421474,228.24503607396036
                    15.689347873657798,48.41419977205013,218.1849024798721
                    15.689415843873649,48.41420184773085,219.3252833392471
                    15.689489171770015,48.41420329351253,220.55904801841825
                    15.68955935739455,48.414202826265544,221.49911147821695
                    15.689625129792997,48.41419593706347,234.9651083908975
                    15.689700529888782,48.414194430191834,236.14665934350342
                    15.689772069339666,48.41419419911873,237.26951005123556
                    15.689855686001737,48.41419211961544,238.22860113997012
                    15.689935474139352,48.414189231518804,238.9685622844845
                    15.690015363174513,48.41419218367148,239.80401947163045
                    15.690091160199366,48.41418764355043,239.84717746730894
                    15.69017529243268,48.41418902587103,239.82724822405726
                    15.690258682085727,48.414191447764466,239.24737443588674
                    15.69031625973603,48.41419233206157,238.33920626807958
                    15.690423513124141,48.41418754777349,236.4487311784178
                    15.690509650725886,48.41418874778912,235.1511060418561
                    15.690591686559673,48.41419131435601,233.6313718231395
                    15.690675686972597,48.41418784597409,231.8259831732139
                    15.690766365679648,48.41418473146254,229.83275996893644
                    15.690842688212893,48.41418744423504,227.68092981819063
                    15.690919431200141,48.41418772123113,225.5685364343226
                    15.690995264159051,48.41418963630765,223.20113019179553
                    15.691066647062275,48.4141922483138,221.26427022274584
                    15.691139361593628,48.41419013426779,217.7613436197862
                    15.691210791479644,48.414196164243556,213.88252327311784
                    15.691277667161565,48.414194344033426,210.7629571314901
                    15.691340118397283,48.414195838269485,209.04654289223254
                    15.691409158604516,48.41419983830437,208.83341805823147
                    15.691482244854768,48.41420888005657,208.9698484921828
                    15.691557277660877,48.414216328276304,209.99393448978662
                    15.69161813376522,48.41422089793038,211.3362308414653
                    15.69167989557345,48.414218997155366,213.11077182460576
                    15.6917382514266,48.4142209945726,214.91954977903515
                    15.691755914271145,48.41422271389789,215.51159574091434
                    15.6918716581619,48.41423129433495,223.0583903444931
                    15.69194431361906,48.41423239681805,228.07830760627985
                    15.692015085815955,48.414237110047516,232.9073696397245
                    15.692083547030093,48.41423215967617,237.55197692196816
                    15.692158299601683,48.414232491585835,241.32831714488566
                    15.692229810476162,48.4142237973771,244.55235947389156
                    15.692301162410676,48.41423235351654,246.80353167839348
                    15.692379809140034,48.41423139809853,248.82390775159
                    15.69244918399836,48.41422826846041,250.61422942951322
                    15.692517071395553,48.41422872901225,251.90338240936399
                    15.692587227340143,48.41422350840657,252.8664960945025
                    15.692662830380245,48.41422289096955,253.540613476187
                    15.692730417036703,48.41421254499563,253.01927709486336
                    15.692799166957034,48.41420439836305,252.47382949199528
                    15.692865807084592,48.414201002853765,251.4115587240085
                    15.69294329743002,48.41420513539867,250.07469914481044
                    15.693002790203877,48.41419764783832,248.82694067247212
                    15.693078998060106,48.41418966314985,247.67193018831313
                    15.693162838968005,48.414185849468986,246.3081395085901
                    15.69322981770915,48.414183758411596,245.06998063717037
                    15.693312192564086,48.4141835636205,243.5435286341235
                    15.69338767364145,48.41418057107329,242.09752207342535
                    15.69347014017529,48.4141744630008,240.60720969829708
                    15.693548941790675,48.41416327519948,239.13887820672244
                    15.69362586230024,48.4141570124392,237.69216854404658
                    15.693709725618355,48.414151524146945,236.47217961773276
                    15.693794180447217,48.41415129957513,236.16584652289748
                    15.693884326912393,48.41414298217145,235.54623983986676
                    15.693970712252275,48.41414946919387,236.03711503371596
                    15.694067198073798,48.414146240644506,235.8594069313258
                    15.694143700580652,48.41413144243877,236.4591219658032
                    15.694222718653581,48.41412695242453,236.39048359077424
                    15.694309441810594,48.414117918744175,236.33821115735918
                    15.694393608116808,48.414111762686275,236.725173804909
                    15.694478196878151,48.414112266618254,236.87013342697173
                    15.694569787912375,48.414109029706594,236.83373302966356
                    15.69465684681586,48.414105769021,236.5143555821851
                    15.694737470701881,48.41410674312472,236.08056635875255
                    15.694829127682816,48.41409841399233,236.2040804773569
                    15.694914660841041,48.41410029941192,235.81597106344998
                    15.694995514375348,48.41409328856406,235.87382004410028
                    15.695082158990786,48.41409851144388,235.6392788514495
                    15.695176376176093,48.4140953863602,236.15614749770612
                    15.695263702535685,48.414097608434105,236.53652784135193
                    15.695342336491757,48.414096008947965,236.51763410121202
                    15.695418152475934,48.414091815794386,236.39125317987055
                    15.695494279465262,48.414091877907616,236.0066125197336
                    15.695582560791046,48.41410273990057,235.9290155339986
                    15.695683748970438,48.41410517994593,235.9186688736081
                    15.695770310062612,48.414103088252354,235.6242214012891
                    15.695855553408414,48.41410408611746,235.79929724242538
                    15.695940656684888,48.414104018024396,236.1739847837016
                    15.696034172070792,48.41410160315319,236.53292529843748
                    15.696120912231416,48.414106133199795,236.7870070496574
                    15.696212448627383,48.414109712228345,237.14991861302406
                    15.69630008414528,48.4141207235856,237.14739399496466
                    15.696379114242093,48.414133799611214,237.60855530761182
                    15.696466554299187,48.41413494950442,237.54561201669276
                    15.696559236802324,48.414132502007895,237.74136278312653
                    15.696630633642252,48.41413075483816,237.97406027745456
                    15.69671794587971,48.41413558911244,238.4258347908035
                    15.696791201525322,48.41414664519354,238.47117999009788
                    15.696883338124497,48.41414709513271,238.88600649964064
                    15.69697631384141,48.414148034107065,239.65689498744905
                    15.697059492204783,48.41415488784204,239.94788338709623
                    15.697141352063612,48.41415077450608,240.10119373630732
                    15.697228328861694,48.41414489058674,240.07434088923037
                    15.697306105393416,48.414155209860155,239.93052944168448
                    15.697388136801662,48.414161408020526,239.46965570840985
                    15.697463866270382,48.414154977859724,239.16535186953843
                    15.697554987411445,48.414159684275475,238.98401652555913
                    15.697631931308969,48.414163153131355,238.51136719807982
                    15.697701319888761,48.41416503212697,238.1880421480164
                    15.69778782609615,48.414175100477465,237.63883188273758
                    15.697866885769301,48.41417392601817,236.95636537484825
                    15.697950661910916,48.41417657670678,236.64215776976198
                    15.698047857588783,48.41418077222349,236.03822876140475
                    15.698126197560997,48.4141916778915,235.45094257500023
                    15.698207573337562,48.41419401029238,234.39496754668653
                    15.69828525444376,48.414198242410954,233.7221133345738
                    15.698372758757,48.414205735328316,232.910155470483
                    15.698451001822223,48.41421225850204,232.41527276020497
                    15.698537992726042,48.414214351400716,232.15498309582472
                    15.698617120356467,48.414219602845755,231.41026436537504
                    15.698694158319142,48.414219617524736,231.37979693710804
                    15.698770327008239,48.41421479275127,230.84846864454448
                    15.698844557734231,48.414216582570866,230.05797245074064
                    15.698913069331294,48.41422541151351,229.27364112064242
                    15.69898862220002,48.41422283294495,228.72705709189177
                    15.699066149412227,48.414227084401375,228.34281182009727
                    15.699149053605339,48.414229327195656,228.17875211313367
                    15.69921995326584,48.41423550205181,228.9302389761433
                    15.699295353736549,48.414238226728365,229.4151238417253
                    15.6993691102099,48.41423981108001,230.43119984772056
                    15.699437852761474,48.41424629686542,231.5086266649887
                    15.699507762016994,48.414249748322135,232.58754830807447
                    15.69957493638054,48.41425364127443,233.39163844659925
                    15.699636562470277,48.41426133706989,234.55114265996963
                    15.699720405870286,48.414263973027715,234.79799420200288
                    15.699789386098654,48.41426816703284,234.9985259063542
                    15.699866540881416,48.41427897721221,235.14507519453764
                    15.699944027228586,48.41428501567514,235.17790032364428
                    15.700025918662735,48.4142848723158,234.6554711535573
                    15.700093250138497,48.41429073281964,233.8273655883968
                    15.700151403155031,48.41429466277331,232.62733092717826
                    15.700231623740226,48.4142986514728,230.68931082636118
                    15.700303211530361,48.41430203331489,228.74058704264462
                    15.700362139864525,48.414307695566016,226.53816516604275
                    15.70043852546697,48.41432157981048,224.19855761900544
                    15.700508687344417,48.41433344125692,221.82290088105947
                    15.700570254220978,48.414345294939345,219.14499888382852
                    15.70064289001786,48.4143555189649,216.5484750661999
                    15.700711521582933,48.414359873932845,211.94073041249067
                    15.700782520907179,48.41436235256737,207.45403746329248
                    15.700845133029906,48.414375023837096,204.48114500194788
                    15.700908869007787,48.414386235497,201.70654771476984
                    15.700973435041563,48.41439695941422,199.9131839144975
                    15.701046641772548,48.414400369626364,197.99748971313238
                    15.701106503637796,48.41442485266938,196.75159676279873
                    15.701172583320373,48.41443474905176,196.41448983736336
                    15.701210062176465,48.41444990876634,196.36065896973014
                    15.701267170413121,48.41445893132348,196.72540555614978
                    15.701336882284703,48.41447676466159,196.8142738174647
                    15.70140917193879,48.41447986767332,196.71718824096024
                    15.70148874958666,48.41449231947959,196.8610635139048
                    15.701554748610373,48.41449612415037,197.10854623187333
                    15.701616417366854,48.414506543906356,197.37313958629966
                    15.701641387407546,48.41451194348665,197.60200806614012
                    15.701747858581458,48.414523637503216,198.37476811558008
                    15.701804100559992,48.414534634223095,198.68261254858226
                    15.701849513256533,48.414551849851605,198.67613285500556
                    15.701896046468702,48.41456468398593,198.63303849566728
                    15.701975069241271,48.4145712648722,198.08311469573528
                    15.702041996036314,48.41458283429244,197.47158036660403
                    15.702099396569627,48.41459630820711,196.68694561626762
                    15.702152992700043,48.414603939805616,195.9307722300291
                    15.702207820014948,48.414615995532316,194.9712017243728
                    15.70226261722736,48.41462619304207,194.58260852005333
                    15.702310165558394,48.414625038832156,194.45411001704633
                    15.70236894148918,48.414638928241644,194.68464852496982
                    15.702426466849726,48.41464503434466,194.98773700371385
                    15.702475683806519,48.41464904422355,195.5467618573457
                    15.702529639579968,48.41465841827414,196.04828567244112
                    15.702580582453153,48.41465810163644,196.1660086326301
                    15.702638002563809,48.41466464059843,196.23888786695898
                    15.702693337769691,48.41466888544387,196.2614326812327
                    15.702746566811422,48.41465877552024,196.13999299425632
                    15.702745247739989,48.41465894578542,196.25174918677658
                    15.702826643139998,48.41466102665932,196.37407880928367
                    15.702890101341632,48.414659879631465,196.2857391219586
                    15.702940515784789,48.4146645688307,196.10038801748306
                    15.70299653310364,48.414660444278276,195.8016648646444
                    15.703041332633376,48.414656950180564,195.37031307350844
                    15.703086649158715,48.41465674919515,194.6579444622621
                    15.703112934878872,48.41464987892328,195.6430932842195
                    15.703205599515899,48.414648584191404,195.39496075734496
                    15.703186220326875,48.41464819865053,195.70914969500154
                    15.703246499647543,48.414648047361965,195.57522614952177
                    15.703263655619343,48.414650486390784,195.53741366416216
                    15.703279260945843,48.41465306534802,195.67777397669852
                    15.70328304289167,48.414650774225166,195.46329338476062
                    15.703299024231642,48.41465456764128,194.97502903733402
                    15.703299905608514,48.41465409005707,195.1893048081547
                    15.703297020377892,48.414654820309906,195.16790748387575
                    15.703295911543025,48.41465585820143,195.22857760451734
                    15.703297387193487,48.414654843725835,195.21493406780064
                    15.703297387193487,48.414654843725835,195.21493406780064
                    15.703297387193487,48.414654843725835,195.21493406780064
                    15.703297872534144,48.4146563927335,195.24315746687353
                    15.703297872534144,48.4146563927335,195.24315746687353
                    15.703297872534144,48.4146563927335,195.24315746687353
                    15.703297872534144,48.4146563927335,195.24315746687353
                    15.703297872534144,48.4146563927335,195.24315746687353
                    15.703297872534144,48.4146563927335,195.24315746687353
                    15.703297872534144,48.4146563927335,195.24315746687353
                    15.703297872534144,48.4146563927335,195.24315746687353
                    15.703297872534144,48.4146563927335,195.24315746687353
                    15.703297872534144,48.4146563927335,195.24315746687353
                    15.703297872534144,48.4146563927335,195.24315746687353
                    15.703297872534144,48.4146563927335,195.24315746687353
                    15.703297872534144,48.4146563927335,195.24315746687353
                    15.703297872534144,48.4146563927335,195.24315746687353
                    15.703297872534144,48.4146563927335,195.24315746687353
                    15.703294335405964,48.41465638100192,195.54500599671155
                    15.703294335405964,48.41465638100192,195.54500599671155
                    15.70329530968939,48.41465558755721,195.51828054711223
                    15.70329530968939,48.41465558755721,195.51828054711223
                    15.70329530968939,48.41465558755721,195.51828054711223
                    15.703295431996054,48.414656171246335,195.65066535398364
                </coordinates>
            </LineString>
        </Placemark>
    </Document>
</kml>